INTELSAT 902 (IS-902)   
1 26900U 01039A   26204.08169595 -.00000284  00000+0  00000+0 0  9990
2 26900   6.2041  71.3386 0004265  50.8048 157.9936  1.00272197 91056
INTELSAT 904 (IS-904)   
1 27380U 02007A   26204.39225603 -.00000227  00000+0  00000+0 0  9993
2 27380   7.0075  68.7452 0005231  30.1150 312.0102  1.00273502 52123
DIRECTV 5 (TEMPO 1)     
1 27426U 02023A   26204.59050508 -.00000057  00000+0  00000+0 0  9995
2 27426   4.9679  74.8528 0003234  45.6338 283.3049  1.00272299 88482
INTELSAT 905 (IS-905)   
1 27438U 02027A   26204.72774112  .00000092  00000+0  00000+0 0  9999
2 27438   6.8423  69.3541 0003614  52.3431 304.5410  1.00273211 51728
GALAXY 3C (G-3C)        
1 27445U 02030A   26204.59353845 -.00000151  00000+0  00000+0 0  9999
2 27445   3.8256  77.5073 0001871  29.3929 313.2499  1.00271496 46852
INTELSAT 906 (IS-906)   
1 27513U 02041A   26204.76755125  .00000012  00000+0  00000+0 0  9998
2 27513   5.8917  72.4644 0003379  33.2832 176.2164  1.00271649 87394
GALAXY 13 (HORIZONS-1)  
1 27954U 03044A   26204.72514111  .00000136  00000+0  00000+0 0  9992
2 27954   1.5103  83.3858 0002091  34.6540 294.4683  1.00268996 46937
INTELSAT 10-02          
1 28358U 04022A   26204.88030727 -.00000006  00000+0  00000+0 0  9998
2 28358   0.0602 254.6407 0000205 255.6353 107.2422  1.00272863 80926
DIRECTV 8               
1 28659U 05019A   26204.60692544  .00000006  00000+0  00000+0 0  9999
2 28659   0.0139  81.0366 0003217  44.1548 275.5869  1.00271272 77433
GALAXY 28 (G-28)        
1 28702U 05022A   26204.82083083 -.00000199  00000+0  00000+0 0  9992
2 28702   3.3895  78.4762 0002309  43.6470  87.8248  1.00271518 52347
GALAXY 16 (G-16)        
1 29236U 06023A   26204.63465059 -.00000122  00000+0  00000+0 0  9999
2 29236   0.0273 125.9496 0002852 357.6002 307.2820  1.00272765 73330
DIRECTV 9S              
1 29494U 06043A   26204.59223844 -.00000111  00000+0  00000+0 0  9994
2 29494   2.5119  80.4631 0005226  35.5449 297.3151  1.00271943 51747
GALAXY 17 (G-17)        
1 31307U 07016B   26204.80932477 -.00000204  00000+0  00000+0 0  9997
2 31307   3.0611  79.4390 0003566  35.7684  32.6684  1.00272122 70173
INTELSAT 11 (IS-11)     
1 32253U 07044B   26204.39182271 -.00000238  00000+0  00000+0 0  9999
2 32253   3.6568  78.2255 0004704  98.6762 231.9004  0.99051909 68800
HORIZONS-2              
1 32388U 07063B   26204.81157812 -.00000251  00000+0  00000+0 0  9994
2 32388   2.6936  80.1770 0003707  22.4176  57.3135  1.00271793 68181
DIRECTV 11              
1 32729U 08013A   26204.41273332 -.00000121  00000+0  00000+0 0  9997
2 32729   0.0121 275.8079 0000213 165.5207 269.2057  1.00272046 45955
GALAXY 18 (G-18)        
1 32951U 08024A   26204.73051448  .00000000  00000+0  00000+0 0  9998
2 32951   0.0219  58.8506 0003187  64.6556 317.9488  1.00269676 46217
GALAXY 19 (G-19)        
1 33376U 08045A   26204.59310512 -.00000134  00000+0  00000+0 0  9996
2 33376   0.0610 250.3488 0002744 244.1349 283.3488  1.00271745 65267
FM-5                    
1 35493U 09034A   26204.02496500 -.00000195  00000+0  00000+0 0  9994
2 35493   0.0406 259.5463 0000846 130.3836 193.6336  1.00269883 47001
INTELSAT 14 (IS-14)     
1 36097U 09064A   26204.81729815 -.00000268  00000+0  00000+0 0  9994
2 36097   0.0160  54.7645 0002603  68.4835  67.5178  1.00272462 60970
INTELSAT 15 (IS-15)     
1 36106U 09067A   26204.84306507 -.00000180  00000+0  00000+0 0  9993
2 36106   0.0136  60.9694 0002413  60.7225 208.5318  1.00272063 41591
DIRECTV 12              
1 36131U 09075A   26204.59197844 -.00000099  00000+0  00000+0 0  9993
2 36131   0.0116 230.1457 0000212 309.4204 232.1448  1.00272032 46914
INTELSAT 16 (IS-16)     
1 36397U 10006A   26204.81105812 -.00000240  00000+0  00000+0 0  9990
2 36397   0.0123  11.2162 0002160 107.8582  38.2446  1.00272124 60023
XM-5                    
1 37185U 10053A   26204.32590369 -.00000018  00000+0  00000+0 0  9992
2 37185   0.0616 262.9774 0001327 309.4997  90.7012  1.00271189 57842
INTELSAT 17 (IS-17)     
1 37238U 10065B   26204.83925171  .00000003  00000+0  00000+0 0  9996
2 37238   0.0188 101.7614 0002449  20.5500 187.3866  1.00272669 53610
INTELSAT 28 (IS-28)     
1 37392U 11016A   26204.81987750 -.00000222  00000+0  00000+0 0  9997
2 37392   1.8981  82.1771 0003994  42.4508  80.3640  1.00272290 53650
INTELSAT 18 (IS-18)     
1 37834U 11056A   26204.79051802  .00000058  00000+0  00000+0 0  9995
2 37834   0.0401 257.4959 0002032 234.4348 274.1642  1.00273006 54170
INTELSAT 22 (IS-22)     
1 38098U 12011A   26204.84046507 -.00000053  00000+0  00000+0 0  9998
2 38098   0.0060  13.2408 0002025 133.1037 169.8844  1.00271619  7555
INTELSAT 19 (IS-19)     
1 38356U 12030A   26204.78774468 -.00000051  00000+0  00000+0 0  9991
2 38356   0.0157  49.3741 0003139  70.1940 271.5317  1.00272102 50810
INTELSAT 20 (IS-20)     
1 38740U 12043A   26204.83977174 -.00000019  00000+0  00000+0 0  9991
2 38740   0.0144  80.5248 0001306 104.9836 126.8780  1.00272139 51116
INTELSAT 21 (IS-21)     
1 38749U 12045A   26204.81469814 -.00000280  00000+0  00000+0 0  9997
2 38749   0.0315 268.1294 0001950 224.6626  44.0352  1.00270568 50896
